{
  "norad_id": 27848,
  "name": "CUBESAT XI-IV (CO-57)",
  "history": [
    {
      "epoch": "2026-03-28T13:12:05.572800",
      "apogee_km": 820.9236849564359,
      "perigee_km": 805.6577222272508,
      "latitude_deg": -31.178773107343844,
      "longitude_deg": -102.39380800002255,
      "semi_major_axis_km": 7191.427703591843,
      "eccentricity": 0.0010614,
      "inclination_deg": 98.6807,
      "raan_deg": 96.8929,
      "arg_perigee_deg": 79.7322,
      "mean_anomaly_deg": 280.5053,
      "mean_motion_rev_day": 14.23574119
    }
  ]
}